NORAD_CAT_ID,OBJECT_NAME,OBJECT_TYPE,EPOCH,MEAN_MOTION,ECCENTRICITY,INCLINATION,RA_OF_ASC_NODE,ARG_OF_PERICENTER,MEAN_ANOMALY,BSTAR,MEAN_MOTION_DOT,MEAN_MOTION_DDOT,TLE_LINE0,TLE_LINE1,TLE_LINE2,SEMIMAJOR_AXIS,PERIOD,APOGEE,PERIGEE,DECAYED
52480.0,STARLINK-3839,PAYLOAD,2022-08-04 14:00:01,15.08878742,0.0002485999999999,53.2166,193.8687,44.5786,129.9173,-0.0048994,-0.00077511,0.0,0 STARLINK-3839,1 52480U 22049AF  22216.58334491 -.00077511  00000-0 -48994-2 0  9995,2 52480  53.2166 193.8687 0002486  44.5786 129.9173 15.08878742  1306,6917.762,95.435,541.347,537.9069999999998,0.0
52480.0,STARLINK-3839,PAYLOAD,2022-08-04 22:00:00,15.08825865,0.0002367,53.2169,192.3714,48.4999,137.6043,0.0013605,0.00021423,0.0,0 STARLINK-3839,1 52480U 22049AF  22216.91667824  .00021423  00000-0  13605-2 0  9991,2 52480  53.2169 192.3714 0002367  48.4999 137.6043 15.08825865  1301,6917.924,95.438,541.4259999999998,538.151,0.0
52480.0,STARLINK-3839,PAYLOAD,2022-08-05 06:00:02,15.08830801,0.0002566999999999,53.2168,190.8768,44.978,152.7801,0.000177,2.529e-05,0.0,0 STARLINK-3839,1 52480U 22049AF  22217.25002315  .00002529  00000-0  17700-3 0  9994,2 52480  53.2168 190.8768 0002567  44.9780 152.7801 15.08830801 14279,6917.909000000002,95.438,541.549,537.998,0.0
52480.0,STARLINK-3839,PAYLOAD,2022-08-05 14:00:01,15.08855486,0.0002484,53.2166,189.3795,45.841,163.4986,-0.0021397,-0.00034197,0.0,0 STARLINK-3839,1 52480U 22049AF  22217.58335648 -.00034197  00000-0 -21397-2 0  9992,2 52480  53.2166 189.3795 0002484  45.8410 163.4986 15.08855486  1307,6917.833000000001,95.437,541.4159999999998,537.98,0.0
52480.0,STARLINK-3839,PAYLOAD,2022-08-05 22:00:00,15.08840096,0.0002403,53.2168,187.8825,50.6376,170.2368,0.001163,0.0001827,0.0,0 STARLINK-3839,1 52480U 22049AF  22217.91667824  .00018270  00000-0  11630-2 0  9994,2 52480  53.2168 187.8825 0002403  50.6376 170.2368 15.08840096  1303,6917.88,95.438,541.4069999999998,538.0830000000002,0.0
52480.0,STARLINK-3839,PAYLOAD,2022-08-06 14:00:01,15.0886517,0.0002481999999999,53.2163,184.8905,47.9039,196.1697,-0.0022319,-0.0003566,0.0,0 STARLINK-3839,1 52480U 22049AF  22218.58334491 -.00035660  00000-0 -22319-2 0  9999,2 52480  53.2163 184.8905 0002482  47.9039 196.1697 15.08865170  1308,6917.803000000001,95.436,541.385,537.951,0.0
52480.0,STARLINK-3839,PAYLOAD,2022-08-06 20:52:18,15.08847116,0.0002459,53.2176,183.6049,48.9507,311.1697,1.6864e-05,-2e-07,0.0,0 STARLINK-3839,1 52480U 22049AF  22218.86965301 -.00000020  00000-0  16864-4 0  9991,2 52480  53.2176 183.6049 0002459  48.9507 311.1697 15.08847116 14362,6917.859,95.437,541.425,538.023,0.0
52480.0,STARLINK-3839,PAYLOAD,2022-08-07 14:00:01,15.08840148,0.0002416,53.2158,180.4014,48.6681,230.1853,-0.0020486,-0.00032746,0.0,0 STARLINK-3839,1 52480U 22049AF  22219.58334491 -.00032746  00000-0 -20486-2 0  9995,2 52480  53.2158 180.4014 0002416  48.6681 230.1853 15.08840148 14634,6917.88,95.438,541.4159999999998,538.0740000000002,0.0
52480.0,STARLINK-3839,PAYLOAD,2022-08-07 22:00:00,15.08837513,0.000236,53.2159,178.9046,53.5523,236.8847,0.0005494,8.466e-05,0.0,0 STARLINK-3839,1 52480U 22049AF  22219.91667824  .00008466  00000-0  54940-3 0  9994,2 52480  53.2159 178.9046 0002360  53.5523 236.8847 15.08837513  1308,6917.888000000001,95.438,541.386,538.12,0.0
52480.0,STARLINK-3839,PAYLOAD,2022-08-08 06:00:00,15.08828599,0.0002557,53.2157,177.41,49.6958,252.3444,0.0017488,0.00027646,0.0,0 STARLINK-3839,1 52480U 22049AF  22220.25001157  .00027646  00000-0  17488-2 0  9990,2 52480  53.2157 177.4100 0002557  49.6958 252.3444 15.08828599 14738,6917.915,95.438,541.549,538.011,0.0
52480.0,STARLINK-3839,PAYLOAD,2022-08-08 14:00:01,15.08862022,0.0002432,53.2154,175.9123,51.3286,262.3705,-0.0011797,-0.00019026,0.0,0 STARLINK-3839,1 52480U 22049AF  22220.58335648 -.00019026  00000-0 -11797-2 0  9993,2 52480  53.2154 175.9123 0002432  51.3286 262.3705 15.08862022  1308,6917.813,95.436,541.36,537.996,0.0
52480.0,STARLINK-3839,PAYLOAD,2022-08-08 22:00:00,15.08881082,0.0002346999999999,53.2156,174.4155,54.7997,270.4474,-0.0024936999999999,-0.00039803,0.0,0 STARLINK-3839,1 52480U 22049AF  22220.91667824 -.00039803  00000-0 -24937-2 0  9999,2 52480  53.2156 174.4155 0002347  54.7997 270.4474 15.08881082  1300,6917.755,95.435,541.243,537.996,0.0
52480.0,STARLINK-3839,PAYLOAD,2022-08-09 06:00:00,15.08837647,0.0002468,53.2156,172.9209,48.9203,287.952,-0.0003319,-5.567e-05,0.0,0 STARLINK-3839,1 52480U 22049AF  22221.25001157 -.00005567  00000-0 -33190-3 0  9990,2 52480  53.2156 172.9209 0002468  48.9203 287.9520 15.08837647 14882,6917.888000000001,95.438,541.46,538.045,0.0
52480.0,STARLINK-3839,PAYLOAD,2022-08-09 14:00:01,15.08825661,0.0002316999999999,53.2156,171.423,49.6717,298.7912,-0.00094743,-0.0001533,0.0,0 STARLINK-3839,1 52480U 22049AF  22221.58334491 -.00015330  00000-0 -94743-3 0  9996,2 52480  53.2156 171.4230 0002317  49.6717 298.7912 15.08825661  1302,6917.924,95.438,541.3919999999998,538.186,0.0
52480.0,STARLINK-3839,PAYLOAD,2022-08-09 22:00:00,15.08835699,0.0002306,53.2159,169.9265,53.17100000000001,306.8599,7.031399999999999e-05,8.31e-06,0.0,0 STARLINK-3839,1 52480U 22049AF  22221.91667824  .00000831  00000-0  70314-4 0  9999,2 52480  53.2159 169.9265 0002306  53.1710 306.8599 15.08835699  1311,6917.894,95.438,541.354,538.163,0.0
52480.0,STARLINK-3839,PAYLOAD,2022-08-10 14:00:01,15.08818615,0.0002302,53.2162,166.9339,49.6228,333.5811,-0.00033617,-5.632e-05,0.0,0 STARLINK-3839,1 52480U 22049AF  22222.58334491 -.00005632  00000-0 -33617-3 0  9994,2 52480  53.2162 166.9339 0002302  49.6228 333.5811 15.08818615  1306,6917.946,95.439,541.403,538.2180000000002,0.0
52480.0,STARLINK-3839,PAYLOAD,2022-08-10 17:07:18,15.08791615,0.0002256999999999,53.2162,166.3496,51.4702,318.6288,0.0033618,0.00053552,0.0,0 STARLINK-3839,1 52480U 22049AF  22222.71341435  .00053552  00000-0  33618-2 0  9997,2 52480  53.2162 166.3496 0002257  51.4702 318.6288 15.08791615 15106,6918.028,95.441,541.455,538.332,0.0
52480.0,STARLINK-3839,PAYLOAD,2022-08-10 22:00:00,15.08833233,0.0002333,53.2166,165.4376,52.5363,342.2267,-0.00041137,-6.828e-05,0.0,0 STARLINK-3839,1 52480U 22049AF  22222.91667824 -.00006828  00000-0 -41137-3 0  9994,2 52480  53.2166 165.4376 0002333  52.5363 342.2267 15.08833233  1307,6917.901,95.438,541.38,538.1519999999998,0.0
52480.0,STARLINK-3839,PAYLOAD,2022-08-11 06:00:02,15.0880717,0.0002504999999999,53.2168,163.9429,48.6329,357.7827,0.0028431999999999,0.00045213,0.0,0 STARLINK-3839,1 52480U 22049AF  22223.25002315  .00045213  00000-0  28432-2 0  9991,2 52480  53.2168 163.9429 0002505  48.6329 357.7827 15.08807170 15185,6917.981,95.44,541.5790000000002,538.113,0.0
52480.0,STARLINK-3839,PAYLOAD,2022-08-11 14:00:01,15.08834177,0.0002384,53.2172,162.445,51.5818,6.3502,8.7397e-05,1.103e-05,0.0,0 STARLINK-3839,1 52480U 22049AF  22223.58334491  .00001103  00000-0  87397-4 0  9997,2 52480  53.2172 162.4450 0002384  51.5818   6.3502 15.08834177  1302,6917.898,95.438,541.4119999999998,538.114,0.0
52480.0,STARLINK-3839,PAYLOAD,2022-08-11 22:00:00,15.08859006,0.0002418,53.2174,160.9488,53.8712,15.6476,-0.00069791,-0.00011385,0.0,0 STARLINK-3839,1 52480U 22049AF  22223.91667824 -.00011385  00000-0 -69791-3 0  9995,2 52480  53.2174 160.9488 0002418  53.8712  15.6476 15.08859006 15287,6917.821999999999,95.436,541.36,538.015,0.0
52480.0,STARLINK-3839,PAYLOAD,2022-08-12 14:00:01,15.0883735,0.0002320999999999,53.2178,157.9561,52.4976,40.2632,0.00071638,0.00011131,0.0,0 STARLINK-3839,1 52480U 22049AF  22224.58334491  .00011131  00000-0  71638-3 0  9990,2 52480  53.2178 157.9561 0002321  52.4976  40.2632 15.08837350  1303,6917.888000000001,95.438,541.359,538.148,0.0
52480.0,STARLINK-3839,PAYLOAD,2022-08-12 20:00:01,15.088491199999998,0.0002304,53.218,156.8336,54.5383,316.9752,0.00084136,0.00013131,0.0,0 STARLINK-3839,1 52480U 22049AF  22224.83335648  .00013131  00000-0  84136-3 0  9992,2 52480  53.2180 156.8336 0002304  54.5383 316.9752 15.08849120 15422,6917.853,95.437,541.311,538.124,0.0
52480.0,STARLINK-3839,PAYLOAD,2022-08-12 22:00:01,15.088750400000002,0.0002335999999999,53.218,156.46,53.331,51.0785,-0.002907,-0.00046302,0.0,0 STARLINK-3839,1 52480U 22049AF  22224.91668981 -.00046302  00000-0 -29070-2 0  9993,2 52480  53.2180 156.4600 0002336  53.3310  51.0785 15.08875040  1309,6917.773,95.435,541.254,538.0219999999998,0.0
52480.0,STARLINK-3839,PAYLOAD,2022-08-13 06:00:02,15.08815382,0.0002389,53.2179,154.9651,47.6261,68.403,0.0010356,0.00016221,0.0,0 STARLINK-3839,1 52480U 22049AF  22225.25002315  .00016221  00000-0  10356-2 0  9996,2 52480  53.2179 154.9651 0002389  47.6261  68.4030 15.08815382 15487,6917.956,95.439,541.4730000000002,538.168,0.0
52480.0,STARLINK-3839,PAYLOAD,2022-08-13 14:00:01,15.08801281,0.0002144,53.218,153.4673,50.6488,76.8985,0.00071506,0.00011099,0.0,0 STARLINK-3839,1 52480U 22049AF  22225.58334491  .00011099  00000-0  71506-3 0  9998,2 52480  53.2180 153.4673 0002144  50.6488  76.8985 15.08801281  1302,6917.999,95.44,541.347,538.381,0.0
52480.0,STARLINK-3839,PAYLOAD,2022-08-13 22:00:00,15.088293599999998,0.0002194,53.2181,151.9715,52.4701,86.6257,-0.0012255999999999,-0.00019736,0.0,0 STARLINK-3839,1 52480U 22049AF  22225.91667824 -.00019736  00000-0 -12256-2 0  9998,2 52480  53.2181 151.9715 0002194  52.4701  86.6257 15.08829360  1305,6917.913000000001,95.438,541.2959999999998,538.26,0.0
52480.0,STARLINK-3839,PAYLOAD,2022-08-14 06:00:02,15.0881213,0.0002411999999999,53.2177,150.4799,47.1001,103.675,0.00065059,0.00010073,0.0,0 STARLINK-3839,1 52480U 22049AF  22226.25002315  .00010073  00000-0  65059-3 0  9997,2 52480  53.2177 150.4799 0002412  47.1001 103.6750 15.08812130 15639,6917.965999999999,95.439,541.499,538.1619999999998,0.0
52480.0,STARLINK-3839,PAYLOAD,2022-08-14 14:00:01,15.08815506,0.0002141,53.2176,148.9785,53.0143,109.2765,0.0017896,0.0002829,0.0,0 STARLINK-3839,1 52480U 22049AF  22226.58334491  .00028290  00000-0  17896-2 0  9991,2 52480  53.2176 148.9785 0002141  53.0143 109.2765 15.08815506  1304,6917.955,95.439,541.3009999999998,538.339,0.0
